GLOBALSTAR M063 [+]     
1 26081U 00008A   23293.38084782 -.00000041  00000+0  61213-3 0  9995
2 26081  51.9943 267.0133 0004149 235.2567 292.4495 11.86145976 85680
GLOBALSTAR M062 [-]     
1 26082U 00008B   23293.34103222 -.00000060  00000+0  26956-3 0  9999
2 26082  51.9842  77.3180 0006048 255.3253 112.7846 12.43419350421253
GLOBALSTAR M060 [-]     
1 26083U 00008C   23293.52410034 -.00000056  00000+0  34663-3 0  9991
2 26083  52.0024 311.1102 0003486 340.1330 187.2534 12.17615534 78581
GLOBALSTAR M064 [-]     
1 26084U 00008D   23293.36875884 -.00000075  00000+0  10997-3 0  9997
2 26084  52.0064  13.0173 0001111 349.9652  10.1158 11.88510374 95060
GLOBALSTAR M065 [+]     
1 31571U 07020A   23293.35228840 -.00000015  00000+0  49479-3 0  9999
2 31571  51.9885 270.1452 0010622  48.0403 117.0239 12.61955662756910
GLOBALSTAR M072 [+]     
1 31574U 07020D   23293.47580331 -.00000068  00000+0  19739-3 0  9995
2 31574  52.0093 321.6347 0000315  89.3563  58.1215 12.62266841756323
GLOBALSTAR M071 [P]     
1 31576U 07020F   23293.27256964 -.00000052  00000+0  28914-3 0  9995
2 31576  52.0060 231.5069 0000223  17.7619 146.2546 12.62270464419210
